{"fetched_at":"2026-03-30T13:17:50Z","count":15418,"tles":[{"name":"HORYU-4","line1":"1 41340U 16012D   26087.85759950  .00121486  00000+0  10961-2 0  9993","line2":"2 41340  30.9910 293.5854 0005545 336.7446  23.2957 15.66645055558115","category":"Other"}]}